GLOBALSTAR M075         
1 37192U 10054E   24275.65231319  .00001186  00000+0  71968-2 0  9990
2 37192  51.9935 248.7206 0000502  66.1679 104.9444 12.62280361643726
GLOBALSTAR M073         
1 37193U 10054F   24275.55058847 -.00000063  00000+0  22619-3 0  9997
2 37193  52.0050 162.6518 0000829  83.7420 344.8479 12.62270320645176
GLOBALSTAR M083         
1 37739U 11033A   24275.88907896 -.00000048  00000+0  31116-3 0  9999
2 37739  51.9835 110.7037 0000958  76.7189  31.5041 12.62265601614591
GLOBALSTAR M088         
1 37740U 11033B   24275.60413547 -.00000092  00000+0  63492-4 0  9998
2 37740  51.9759  17.2786 0000739  92.1426 281.7339 12.62267906609743
GLOBALSTAR M091         
1 37741U 11033C   24275.56655640 -.00000073  00000+0  17141-3 0  9994
2 37741  52.0018 340.4912 0000627  74.7530  66.1851 12.62267619610527
GLOBALSTAR M085         
1 37742U 11033D   24275.55856635 -.00000074  00000+0  16853-3 0  9991
2 37742  51.9862 291.7816 0000533  60.5962 105.3189 12.62266595611031
GLOBALSTAR M081         
1 37743U 11033E   24275.82356372 -.00000064  00000+0  22404-3 0  9993
2 37743  51.9953 293.6017 0000672  82.8247  87.9844 12.62270242611592
GLOBALSTAR M089         
1 37744U 11033F   24275.38697674 -.00000099  00000+0  28634-4 0  9998
2 37744  51.9918 249.2082 0000495 111.5167  52.7767 12.62269627612003
